[{"OBJECT_NAME":"STARLINK-4543","OBJECT_ID":"2022-097AT","EPOCH":"2026-03-09T08:50:22.784064","MEAN_MOTION":15.08843357,"ECCENTRICITY":0.00014048,"INCLINATION":53.2169,"RA_OF_ASC_NODE":105.6793,"ARG_OF_PERICENTER":91.9593,"MEAN_ANOMALY":268.156,"EPHEMERIS_TYPE":0,"CLASSIFICATION_TYPE":"U","NORAD_CAT_ID":53429,"ELEMENT_SET_NO":999,"REV_AT_EPOCH":19873,"BSTAR":3.7176929e-5,"MEAN_MOTION_DOT":3.04e-6,"MEAN_MOTION_DDOT":0},{"OBJECT_NAME":"YUNYAO-1 43","OBJECT_ID":"2025-059A","EPOCH":"2026-03-09T23:54:24.516576","MEAN_MOTION":15.10329109,"ECCENTRICITY":0.00157026,"INCLINATION":97.608,"RA_OF_ASC_NODE":250.9377,"ARG_OF_PERICENTER":132.1084,"MEAN_ANOMALY":228.1483,"EPHEMERIS_TYPE":0,"CLASSIFICATION_TYPE":"U","NORAD_CAT_ID":63344,"ELEMENT_SET_NO":999,"REV_AT_EPOCH":5332,"BSTAR":0.00032498885,"MEAN_MOTION_DOT":5.279e-5,"MEAN_MOTION_DDOT":0}]
